{
  "type": "FeatureCollection",
  "features": [
    {
      "type": "Feature",
      "properties": {
        "norad_id": 33625,
        "name": "FENGYUN 1C DEB",
        "group": "fengyun-1c-debris",
        "lat": -58.092277505505756,
        "lon": 112.22732571841146,
        "alt_km": 853.6062097962586,
        "timestamp": "2025-12-13T10:41:26.052920+00:00",
        "meta_object_name": "FENGYUN 1C DEB",
        "meta_object_id": "1999-025DDJ",
        "meta_epoch": "2025-12-01T01:24:31.444992",
        "meta_mean_motion": 14.60592393,
        "meta_eccentricity": 0.02269611,
        "meta_inclination": 98.6203,
        "meta_ra_of_asc_node": 85.2252,
        "meta_arg_of_pericenter": 171.2387,
        "meta_mean_anomaly": 189.288,
        "meta_ephemeris_type": 0,
        "meta_classification_type": "U",
        "meta_norad_cat_id": 33625,
        "meta_element_set_no": 999,
        "meta_rev_at_epoch": 61220,
        "meta_bstar": 0.0017865562,
        "meta_mean_motion_dot": 0.00012473,
        "meta_mean_motion_ddot": 0,
        "tle_line1": "1 33625U 99025DDJ 25335.05869728  .00012473  00000+0  17866-2 0  9993",
        "tle_line2": "2 33625  98.6203  85.2252 0226961 171.2387 189.2880 14.60592393612207"
      },
      "geometry": {
        "type": "Point",
        "coordinates": [
          112.22732571841146,
          -58.092277505505756
        ]
      }
    },
    {
      "type": "Feature",
      "properties": {
        "norad_id": 33630,
        "name": "FENGYUN 1C DEB",
        "group": "fengyun-1c-debris",
        "lat": -14.360689416357783,
        "lon": 95.84305651078479,
        "alt_km": 820.2274705183272,
        "timestamp": "2025-12-13T10:41:26.052930+00:00",
        "meta_object_name": "FENGYUN 1C DEB",
        "meta_object_id": "1999-025DDP",
        "meta_epoch": "2025-12-09T13:35:56.277312",
        "meta_mean_motion": 14.17713216,
        "meta_eccentricity": 0.0135528,
        "meta_inclination": 98.6166,
        "meta_ra_of_asc_node": 89.8546,
        "meta_arg_of_pericenter": 77.2482,
        "meta_mean_anomaly": 284.3802,
        "meta_ephemeris_type": 0,
        "meta_classification_type": "U",
        "meta_norad_cat_id": 33630,
        "meta_element_set_no": 999,
        "meta_rev_at_epoch": 64366,
        "meta_bstar": 0.00061826,
        "meta_mean_motion_dot": 1.337e-05,
        "meta_mean_motion_ddot": 0,
        "tle_line1": "1 33630U 99025DDP 25343.56662358  .00001337  00000+0  61826-3 0  9997",
        "tle_line2": "2 33630  98.6166  89.8546 0135528  77.2482 284.3802 14.17713216643662"
      },
      "geometry": {
        "type": "Point",
        "coordinates": [
          95.84305651078479,
          -14.360689416357783
        ]
      }
    },
    {
      "type": "Feature",
      "properties": {
        "norad_id": 33633,
        "name": "FENGYUN 1C DEB",
        "group": "fengyun-1c-debris",
        "lat": 31.163300545692795,
        "lon": 76.19863548514545,
        "alt_km": 853.1619660311981,
        "timestamp": "2025-12-13T10:41:26.052940+00:00",
        "meta_object_name": "FENGYUN 1C DEB",
        "meta_object_id": "1999-025DDS",
        "meta_epoch": "2025-12-12T05:54:30.955104",
        "meta_mean_motion": 14.19329776,
        "meta_eccentricity": 0.00830759,
        "meta_inclination": 99.0576,
        "meta_ra_of_asc_node": 80.5087,
        "meta_arg_of_pericenter": 152.7608,
        "meta_mean_anomaly": 235.4895,
        "meta_ephemeris_type": 0,
        "meta_classification_type": "U",
        "meta_norad_cat_id": 33633,
        "meta_element_set_no": 999,
        "meta_rev_at_epoch": 90704,
        "meta_bstar": 0.0036236562,
        "meta_mean_motion_dot": 7.838e-05,
        "meta_mean_motion_ddot": 0,
        "tle_line1": "1 33633U 99025DDS 25346.24619161  .00007838  00000+0  36237-2 0  9991",
        "tle_line2": "2 33633  99.0576  80.5087 0083075 152.7608 235.4895 14.19329776907041"
      },
      "geometry": {
        "type": "Point",
        "coordinates": [
          76.19863548514545,
          31.163300545692795
        ]
      }
    },
    {
      "type": "Feature",
      "properties": {
        "norad_id": 33637,
        "name": "FENGYUN 1C DEB",
        "group": "fengyun-1c-debris",
        "lat": -41.61885953481732,
        "lon": 40.0444250655977,
        "alt_km": 833.9709159246449,
        "timestamp": "2025-12-13T10:41:26.052950+00:00",
        "meta_object_name": "FENGYUN 1C DEB",
        "meta_object_id": "1999-025DDW",
        "meta_epoch": "2025-12-11T08:44:50.038656",
        "meta_mean_motion": 14.36733805,
        "meta_eccentricity": 0.00831045,
        "meta_inclination": 98.493,
        "meta_ra_of_asc_node": 30.363,
        "meta_arg_of_pericenter": 155.527,
        "meta_mean_anomaly": 204.9897,
        "meta_ephemeris_type": 0,
        "meta_classification_type": "U",
        "meta_norad_cat_id": 33637,
        "meta_element_set_no": 999,
        "meta_rev_at_epoch": 64818,
        "meta_bstar": 0.0022658521,
        "meta_mean_motion_dot": 6.913e-05,
        "meta_mean_motion_ddot": 0,
        "tle_line1": "1 33637U 99025DDW 25345.36446804  .00006913  00000+0  22659-2 0  9995",
        "tle_line2": "2 33637  98.4930  30.3630 0083104 155.5270 204.9897 14.36733805648189"
      },
      "geometry": {
        "type": "Point",
        "coordinates": [
          40.0444250655977,
          -41.61885953481732
        ]
      }
    },
    {
      "type": "Feature",
      "properties": {
        "norad_id": 33638,
        "name": "FENGYUN 1C DEB",
        "group": "fengyun-1c-debris",
        "lat": -77.87240277636454,
        "lon": -78.08285623082429,
        "alt_km": 815.5007083867567,
        "timestamp": "2025-12-13T10:41:26.052960+00:00",
        "meta_object_name": "FENGYUN 1C DEB",
        "meta_object_id": "1999-025DDX",
        "meta_epoch": "2025-12-11T22:14:50.921664",
        "meta_mean_motion": 13.69308763,
        "meta_eccentricity": 0.0264805,
        "meta_inclination": 98.4644,
        "meta_ra_of_asc_node": 236.7162,
        "meta_arg_of_pericenter": 275.2453,
        "meta_mean_anomaly": 81.8534,
        "meta_ephemeris_type": 0,
        "meta_classification_type": "U",
        "meta_norad_cat_id": 33638,
        "meta_element_set_no": 999,
        "meta_rev_at_epoch": 60904,
        "meta_bstar": 0.0019789,
        "meta_mean_motion_dot": 2.159e-05,
        "meta_mean_motion_ddot": 0,
        "tle_line1": "1 33638U 99025DDX 25345.92697826  .00002159  00000+0  19789-2 0  9998",
        "tle_line2": "2 33638  98.4644 236.7162 0264805 275.2453  81.8534 13.69308763609044"
      },
      "geometry": {
        "type": "Point",
        "coordinates": [
          -78.08285623082429,
          -77.87240277636454
        ]
      }
    },
    {
      "type": "Feature",
      "properties": {
        "norad_id": 33639,
        "name": "FENGYUN 1C DEB",
        "group": "fengyun-1c-debris",
        "lat": 40.6955957396399,
        "lon": 70.85737894020734,
        "alt_km": 767.870650923076,
        "timestamp": "2025-12-13T10:41:26.052971+00:00",
        "meta_object_name": "FENGYUN 1C DEB",
        "meta_object_id": "1999-025DDY",
        "meta_epoch": "2025-12-03T23:45:48.189312",
        "meta_mean_motion": 14.40248408,
        "meta_eccentricity": 0.00493059,
        "meta_inclination": 98.7136,
        "meta_ra_of_asc_node": 68.813,
        "meta_arg_of_pericenter": 315.1865,
        "meta_mean_anomaly": 44.5345,
        "meta_ephemeris_type": 0,
        "meta_classification_type": "U",
        "meta_norad_cat_id": 33639,
        "meta_element_set_no": 999,
        "meta_rev_at_epoch": 60456,
        "meta_bstar": 0.0043899516,
        "meta_mean_motion_dot": 0.00014079,
        "meta_mean_motion_ddot": 0,
        "tle_line1": "1 33639U 99025DDY 25337.99014108  .00014079  00000+0  43900-2 0  9999",
        "tle_line2": "2 33639  98.7136  68.8130 0049305 315.1865  44.5345 14.40248408604567"
      },
      "geometry": {
        "type": "Point",
        "coordinates": [
          70.85737894020734,
          40.6955957396399
        ]
      }
    },
    {
      "type": "Feature",
      "properties": {
        "norad_id": 33640,
        "name": "FENGYUN 1C DEB",
        "group": "fengyun-1c-debris",
        "lat": -61.355429370573454,
        "lon": 93.67369406280939,
        "alt_km": 740.0454074295212,
        "timestamp": "2025-12-13T10:41:26.052981+00:00",
        "meta_object_name": "FENGYUN 1C DEB",
        "meta_object_id": "1999-025DDZ",
        "meta_epoch": "2025-12-11T19:22:45.041664",
        "meta_mean_motion": 14.45889666,
        "meta_eccentricity": 0.00906976,
        "meta_inclination": 98.8406,
        "meta_ra_of_asc_node": 288.5217,
        "meta_arg_of_pericenter": 162.4466,
        "meta_mean_anomaly": 197.9894,
        "meta_ephemeris_type": 0,
        "meta_classification_type": "U",
        "meta_norad_cat_id": 33640,
        "meta_element_set_no": 999,
        "meta_rev_at_epoch": 92329,
        "meta_bstar": 0.00074722735,
        "meta_mean_motion_dot": 2.744e-05,
        "meta_mean_motion_ddot": 0,
        "tle_line1": "1 33640U 99025DDZ 25345.80746576  .00002744  00000+0  74723-3 0  9995",
        "tle_line2": "2 33640  98.8406 288.5217 0090697 162.4466 197.9894 14.45889666923295"
      },
      "geometry": {
        "type": "Point",
        "coordinates": [
          93.67369406280939,
          -61.355429370573454
        ]
      }
    }
  ]
}